      2.10          N: GNSS NAV DATA                        RINEX VERSION / TYPE
fic2rin                                 01/31/2023 00:17:31 PGM / RUN BY / DATE
                                                            END OF HEADER
19 23  1 30  9 59 44.0  .270952004939D-03  .511590769747D-11  .000000000000D+00
     .510000000000D+02  .524687500000D+02  .415803034151D-08 -.212380851672D+01
     .301934778690D-05  .906952819787D-02  .389479100704D-05  .515360374451D+04
     .122384000000D+06 -.126659870148D-06 -.284230682777D+01  .201165676117D-06
     .975062563612D+00  .312000000000D+03  .223535110047D+01 -.802140555231D-08
     .119290683221D-09  .100000000000D+01  .224700000000D+04  .000000000000D+00
     .240000000000D+01  .000000000000D+00 -.153668224812D-07  .510000000000D+02
     .115200000000D+06  .400000000000D+01
2  23  1 30 10  0  0.0 -.624143518507D-03  .238742359215D-11  .000000000000D+00
     .111000000000D+03 -.404375000000D+02  .448482966830D-08 -.114879605073D+01
    -.191479921341D-05  .200843868079D-01  .514462590218D-05  .515368975258D+04
     .122400000000D+06 -.407919287682D-06 -.198217371100D+01  .139698386192D-06
     .966930096680D+00  .289750000000D+03 -.133388499472D+01 -.842427947648D-08
     .753602819154D-10  .100000000000D+01  .224700000000D+04  .000000000000D+00
     .240000000000D+01  .000000000000D+00 -.176951289177D-07  .111000000000D+03
     .115200000000D+06  .400000000000D+01
1  23  1 30 10  0  0.0  .218349974602D-03 -.443378667114D-11  .000000000000D+00
     .450000000000D+02 -.683437500000D+02  .400909556635D-08 -.164148446402D+00
    -.348687171936D-05  .122699271888D-01  .501982867718D-05  .515365298271D+04
     .122400000000D+06  .931322574615D-08 -.188570398476D+01  .158324837685D-06
     .989200680842D+00  .300250000000D+03  .936657532026D+00 -.814926802115D-08
    -.596453416107D-10  .100000000000D+01  .224700000000D+04  .000000000000D+00
     .240000000000D+01  .630000000000D+02  .465661287308D-08  .450000000000D+02
     .115200000000D+06  .400000000000D+01
6  23  1 30 10  0  0.0  .566006172448D-03  .522959453519D-11  .000000000000D+00
     .100000000000D+02 -.630000000000D+02  .391266297812D-08  .940088010553D-01
    -.331923365593D-05  .289735011756D-02  .469945371151D-05  .515360181618D+04
     .122400000000D+06  .186264514923D-07 -.189400943737D+01 -.577419996262D-07
     .988459377826D+00  .300156250000D+03 -.860554377201D+00 -.795318842508D-08
    -.285726187357D-10  .100000000000D+01  .224700000000D+04  .000000000000D+00
     .240000000000D+01  .000000000000D+00  .372529029846D-08  .100000000000D+02
     .115200000000D+06  .400000000000D+01
5  23  1 30 10  0  0.0 -.113956164569D-03 -.147792889038D-11  .000000000000D+00
     .980000000000D+02 -.626562500000D+02  .437982529445D-08  .240680309955D+01
    -.329129397869D-05  .578914792277D-02  .826269388199D-05  .515360759926D+04
     .122400000000D+06  .428408384323D-07 -.898746909696D+00 -.115483999252D-06
     .964360147528D+00  .223156250000D+03  .113362937921D+01 -.780461080765D-08
     .198222542479D-09  .100000000000D+01  .224700000000D+04  .000000000000D+00
     .240000000000D+01  .000000000000D+00 -.111758708954D-07  .980000000000D+02
     .115200000000D+06  .400000000000D+01
3  23  1 30 10  0  0.0 -.368357170373D-03  .352429196937D-11  .000000000000D+00
     .780000000000D+02 -.661562500000D+02  .413731519293D-08 -.131127762340D+01
    -.336021184921D-05  .445596314967D-02  .895746052265D-05  .515373288536D+04
     .122400000000D+06  .949949026108D-07 -.853717115030D+00  .987201929092D-07
     .977358736423D+00  .217218750000D+03  .102179301810D+01 -.774603693924D-08
     .268582616115D-09  .100000000000D+01  .224700000000D+04  .000000000000D+00
     .340000000000D+01  .000000000000D+00  .186264514923D-08  .780000000000D+02
     .115200000000D+06  .400000000000D+01
7  23  1 30 10  0  0.0  .250102486461D-03 -.659383658785D-11  .000000000000D+00
     .880000000000D+02  .703125000000D+01  .497449292188D-08 -.763408819384D+00
     .441446900368D-06  .166670742910D-01  .781752169132D-05  .515359074974D+04
     .122400000000D+06  .502914190292D-07  .124309386588D+01  .309199094772D-06
     .950144242556D+00  .222781250000D+03 -.222814558963D+01 -.832713257278D-08
    -.404659712844D-09  .100000000000D+01  .224700000000D+04  .000000000000D+00
     .240000000000D+01  .000000000000D+00 -.111758708954D-07  .880000000000D+02
     .115200000000D+06  .400000000000D+01
4  23  1 30 10  0  0.0 -.382056459785D-04  .795807864051D-11  .000000000000D+00
     .640000000000D+02 -.103437500000D+02  .475198365348D-08  .163945898957D+01
    -.359490513802D-06  .229243095964D-02  .745058059692D-05  .515371112251D+04
     .122400000000D+06  .409781932831D-07  .227223009345D+00  .391155481339D-07
     .962622035540D+00  .237781250000D+03 -.305882125337D+01 -.802354849872D-08
     .156435087578D-09  .100000000000D+01  .224700000000D+04  .000000000000D+00
     .240000000000D+01  .000000000000D+00 -.465661287308D-08  .320000000000D+03
     .115200000000D+06  .400000000000D+01
31 23  1 30 10  0  0.0 -.207802746445D-03 -.113686837722D-11  .000000000000D+00
     .900000000000D+01  .131562500000D+02  .472805408529D-08 -.135210750169D+01
     .622123479843D-06  .107825882733D-01  .774674117565D-05  .515364463615D+04
     .122400000000D+06  .193715095520D-06  .126258716737D+01 -.109896063805D-06
     .954254860957D+00  .225125000000D+03  .498036446794D+00 -.796390315710D-08
    -.220723479733D-09  .100000000000D+01  .224700000000D+04  .000000000000D+00
     .240000000000D+01  .000000000000D+00 -.135041773319D-07  .900000000000D+01
     .115200000000D+06  .400000000000D+01
17 23  1 30 10  0  0.0  .696802977473D-03  .250111042988D-11  .000000000000D+00
     .800000000000D+01  .557500000000D+02  .405445459859D-08  .203348200774D+01
     .275857746601D-05  .137264027726D-01  .343471765518D-05  .515370875168D+04
     .122400000000D+06  .188127160072D-06 -.288692029790D+01 -.707805156708D-07
     .976081291487D+00  .316375000000D+03 -.142537382429D+01 -.787711382769D-08
     .592881838765D-10  .100000000000D+01  .224700000000D+04  .000000000000D+00
     .240000000000D+01  .000000000000D+00 -.111758708954D-07  .800000000000D+01
     .115200000000D+06  .400000000000D+01
13 23  1 30 10  0  0.0  .467892270535D-03  .625277607469D-11  .000000000000D+00
     .700000000000D+01 -.900000000000D+01  .460162024738D-08  .159518905796D+01
    -.495463609695D-06  .675297796261D-02  .724010169506D-05  .515366367722D+04
     .122400000000D+06 -.204890966415D-06  .329841089148D+00  .149011611938D-07
     .969702611709D+00  .245750000000D+03  .939538857439D+00 -.797711799327D-08
     .157863718515D-09  .100000000000D+01  .224700000000D+04  .000000000000D+00
     .240000000000D+01  .000000000000D+00 -.111758708954D-07  .700000000000D+01
     .115200000000D+06  .400000000000D+01
10 23  1 30 10  0  0.0 -.225678086281D-04 -.159161572810D-11  .000000000000D+00
     .490000000000D+02 -.610000000000D+02  .404159692016D-08 -.224288301319D+01
    -.329501926899D-05  .842361780815D-02  .882148742676D-05  .515368901634D+04
     .122400000000D+06  .558793544769D-07 -.856393585099D+00 -.819563865662D-07
     .977116453782D+00  .216468750000D+03 -.245192502440D+01 -.766067624077D-08
     .332156692802D-09  .100000000000D+01  .224700000000D+04  .000000000000D+00
     .240000000000D+01  .000000000000D+00  .232830643654D-08  .490000000000D+02
     .115200000000D+06  .400000000000D+01
9  23  1 30 10  0  0.0 -.227430835366D-03  .682121026330D-11  .000000000000D+00
     .102000000000D+03 -.108125000000D+02  .483020119727D-08  .240121919537D+01
    -.435858964920D-06  .253432150930D-02  .731088221073D-05  .515367594147D+04
     .122400000000D+06  .465661287308D-07  .171488864617D+00 -.484287738800D-07
     .955851497063D+00  .232625000000D+03  .196378042882D+01 -.803319175754D-08
     .183936233111D-09  .100000000000D+01  .224700000000D+04  .000000000000D+00
     .240000000000D+01  .000000000000D+00  .139698386192D-08  .102000000000D+03
     .115200000000D+06  .400000000000D+01
11 23  1 30 10  0  0.0 -.911382958293D-04 -.954969436862D-11  .000000000000D+00
     .184000000000D+03 -.604375000000D+02  .448232956416D-08  .130279540202D+01
    -.331178307533D-05  .779580208473D-03  .440329313278D-05  .515369881058D+04
     .122400000000D+06 -.372529029846D-08 -.185001480793D+01 -.558793544769D-08
     .964542234016D+00  .294843750000D+03 -.267954310941D+01 -.816498296146D-08
    -.785747015231D-11  .100000000000D+01  .224700000000D+04  .000000000000D+00
     .240000000000D+01  .000000000000D+00 -.884756445885D-08  .696000000000D+03
     .115200000000D+06  .400000000000D+01
26 23  1 30 10  0  0.0  .240983907133D-03  .454747350886D-12  .000000000000D+00
     .180000000000D+02  .680312500000D+02  .490127558637D-08 -.243640168175D+01
     .343471765518D-05  .781500479206D-02  .847689807415D-05  .515363519478D+04
     .122400000000D+06 -.558793544769D-08  .222334190062D+01 -.782310962677D-07
     .934803447207D+00  .204687500000D+03  .442443624341D+00 -.810819488172D-08
    -.126076680171D-09  .100000000000D+01  .224700000000D+04  .000000000000D+00
     .240000000000D+01  .000000000000D+00  .698491930962D-08  .180000000000D+02
     .115200000000D+06  .400000000000D+01
25 23  1 30 10  0  0.0  .415776856244D-03  .329691829393D-11  .000000000000D+00
     .190000000000D+02  .640937500000D+02  .445697136503D-08 -.163696195079D+01
     .339001417160D-05  .111071098363D-01  .794976949692D-05  .515378752136D+04
     .122400000000D+06  .264495611191D-06  .227682501673D+01  .372529029846D-08
     .954051247630D+00  .221812500000D+03  .102684416263D+01 -.789032866386D-08
    -.170721396946D-09  .100000000000D+01  .224700000000D+04  .000000000000D+00
     .240000000000D+01  .000000000000D+00  .558793544769D-08  .190000000000D+02
     .115200000000D+06  .400000000000D+01
